STARLINK-32689          
1 62440U 24251J   26063.14130289  .00044664  00000+0  15102-2 0  9999
2 62440  53.1622   0.7390 0001509  52.6119 307.5019 15.30219175 67108
STARLINK-32724          
1 62441U 24251K   26063.09709157  .00052497  00000+0  17695-2 0  9992
2 62441  53.1624   1.1774 0001075 113.1149 246.9965 15.30248198 66939
STARLINK-32291          
1 62442U 24251L   26063.17084639  .00041064  00000+0  13900-2 0  9996
2 62442  53.1609   0.9238 0000783 143.5170 216.5884 15.30222565 66798
STARLINK-32736          
1 62443U 24251M   26063.11291977  .00035145  00000+0  11919-2 0  9997
2 62443  53.1587   1.2738 0000904 126.4211 233.6874 15.30232398 66934
STARLINK-32737          
1 62444U 24251N   26063.09128625  .00018626  00000+0  63935-3 0  9995
2 62444  53.1624 359.0082 0001266  85.6541 274.4604 15.30203531 67120
STARLINK-32683          
1 62445U 24251P   26063.13085977  .00034406  00000+0  11674-2 0  9999
2 62445  53.1603   1.3834 0001030 115.8024 244.3084 15.30228617 67097
STARLINK-32726          
1 62446U 24251Q   26063.09603676  .00038572  00000+0  13074-2 0  9991
2 62446  53.1623   1.1664 0001211  89.2972 270.8168 15.30207673 66787
STARLINK-32730          
1 62447U 24251R   26063.02333482  .00034077  00000+0  11567-2 0  9991
2 62447  53.1625   1.4226 0001361  86.9612 273.1545 15.30219651 67086
STARLINK-32719          
1 62448U 24251S   26063.02026137  .00036258  00000+0  12299-2 0  9994
2 62448  53.1640   1.9682 0000849  14.2191 345.8834 15.30211880 66905
STARLINK-32723          
1 62449U 24251T   26063.09814792  .00046517  00000+0  15711-2 0  9995
2 62449  53.1624   1.1808 0001143  87.1882 272.9249 15.30236453 66930
STARLINK-32722          
1 62450U 24251U   26063.02755620  .00029113  00000+0  99060-3 0  9997
2 62450  53.1622   1.4469 0001088  71.8292 288.2827 15.30219947 66716
STARLINK-32720          
1 62451U 24251V   26063.05815865  .00048707  00000+0  16448-2 0  9997
2 62451  53.1604   1.6420 0001664 134.3135 225.8002 15.30220266 66715
STARLINK-32656          
1 62452U 24251W   26063.13824487  .00028622  00000+0  97385-3 0  9991
2 62452  53.1617   1.4297 0001008  95.3184 264.7932 15.30231458 66935
STARLINK-32690          
1 62453U 24251X   26063.02438929  .00047296  00000+0  15979-2 0  9998
2 62453  53.1627   1.4307 0000825  95.5460 264.5635 15.30219481 66709
STARLINK-11518 [DTC]    
1 62462U 24254A   26062.56521047  .00260862  00000+0  19609-2 0  9993
2 62462  42.9984 260.2892 0002083 249.6998 110.3646 15.70989843 68444
STARLINK-11455 [DTC]    
1 62463U 24254B   26062.57051723  .00254383  00000+0  19136-2 0  9990
2 62463  42.9985 260.3308 0002085 232.8666 127.2012 15.70991936 68436
STARLINK-11178 [DTC]    
1 62465U 24254D   26062.93609049  .00399833  00000+0  29550-2 0  9993
2 62465  42.9987 257.9043 0001645 275.3574  84.7106 15.70977430 68332
