[{"OBJECT_NAME":"STARLINK-32689","OBJECT_ID":"2024-251J","EPOCH":"2026-03-04T03:23:28.569696","MEAN_MOTION":15.30219175,"ECCENTRICITY":0.0001509,"INCLINATION":53.1622,"RA_OF_ASC_NODE":0.739,"ARG_OF_PERICENTER":52.6119,"MEAN_ANOMALY":307.5019,"EPHEMERIS_TYPE":0,"CLASSIFICATION_TYPE":"U","NORAD_CAT_ID":62440,"ELEMENT_SET_NO":999,"REV_AT_EPOCH":6710,"BSTAR":0.0015102,"MEAN_MOTION_DOT":0.00044664,"MEAN_MOTION_DDOT":0},{"OBJECT_NAME":"STARLINK-32724","OBJECT_ID":"2024-251K","EPOCH":"2026-03-04T02:19:48.711648","MEAN_MOTION":15.30248198,"ECCENTRICITY":0.0001075,"INCLINATION":53.1624,"RA_OF_ASC_NODE":1.1774,"ARG_OF_PERICENTER":113.1149,"MEAN_ANOMALY":246.9965,"EPHEMERIS_TYPE":0,"CLASSIFICATION_TYPE":"U","NORAD_CAT_ID":62441,"ELEMENT_SET_NO":999,"REV_AT_EPOCH":6693,"BSTAR":0.0017695,"MEAN_MOTION_DOT":0.00052497,"MEAN_MOTION_DDOT":0},{"OBJECT_NAME":"STARLINK-32291","OBJECT_ID":"2024-251L","EPOCH":"2026-03-04T04:06:01.128096","MEAN_MOTION":15.30222565,"ECCENTRICITY":7.83e-5,"INCLINATION":53.1609,"RA_OF_ASC_NODE":0.9238,"ARG_OF_PERICENTER":143.517,"MEAN_ANOMALY":216.5884,"EPHEMERIS_TYPE":0,"CLASSIFICATION_TYPE":"U","NORAD_CAT_ID":62442,"ELEMENT_SET_NO":999,"REV_AT_EPOCH":6679,"BSTAR":0.00139,"MEAN_MOTION_DOT":0.00041064,"MEAN_MOTION_DDOT":0},{"OBJECT_NAME":"STARLINK-32736","OBJECT_ID":"2024-251M","EPOCH":"2026-03-04T02:42:36.268128","MEAN_MOTION":15.30232398,"ECCENTRICITY":9.04e-5,"INCLINATION":53.1587,"RA_OF_ASC_NODE":1.2738,"ARG_OF_PERICENTER":126.4211,"MEAN_ANOMALY":233.6874,"EPHEMERIS_TYPE":0,"CLASSIFICATION_TYPE":"U","NORAD_CAT_ID":62443,"ELEMENT_SET_NO":999,"REV_AT_EPOCH":6693,"BSTAR":0.0011919,"MEAN_MOTION_DOT":0.00035145,"MEAN_MOTION_DDOT":0},{"OBJECT_NAME":"STARLINK-32737","OBJECT_ID":"2024-251N","EPOCH":"2026-03-04T02:11:27.132000","MEAN_MOTION":15.30203531,"ECCENTRICITY":0.0001266,"INCLINATION":53.1624,"RA_OF_ASC_NODE":359.0082,"ARG_OF_PERICENTER":85.6541,"MEAN_ANOMALY":274.4604,"EPHEMERIS_TYPE":0,"CLASSIFICATION_TYPE":"U","NORAD_CAT_ID":62444,"ELEMENT_SET_NO":999,"REV_AT_EPOCH":6712,"BSTAR":0.00063935,"MEAN_MOTION_DOT":0.00018626,"MEAN_MOTION_DDOT":0},{"OBJECT_NAME":"STARLINK-32683","OBJECT_ID":"2024-251P","EPOCH":"2026-03-04T03:08:26.284128","MEAN_MOTION":15.30228617,"ECCENTRICITY":0.000103,"INCLINATION":53.1603,"RA_OF_ASC_NODE":1.3834,"ARG_OF_PERICENTER":115.8024,"MEAN_ANOMALY":244.3084,"EPHEMERIS_TYPE":0,"CLASSIFICATION_TYPE":"U","NORAD_CAT_ID":62445,"ELEMENT_SET_NO":999,"REV_AT_EPOCH":6709,"BSTAR":0.0011674,"MEAN_MOTION_DOT":0.00034406,"MEAN_MOTION_DDOT":0},{"OBJECT_NAME":"STARLINK-32726","OBJECT_ID":"2024-251Q","EPOCH":"2026-03-04T02:18:17.576064","MEAN_MOTION":15.30207673,"ECCENTRICITY":0.0001211,"INCLINATION":53.1623,"RA_OF_ASC_NODE":1.1664,"ARG_OF_PERICENTER":89.2972,"MEAN_ANOMALY":270.8168,"EPHEMERIS_TYPE":0,"CLASSIFICATION_TYPE":"U","NORAD_CAT_ID":62446,"ELEMENT_SET_NO":999,"REV_AT_EPOCH":6678,"BSTAR":0.0013074,"MEAN_MOTION_DOT":0.00038572,"MEAN_MOTION_DDOT":0},{"OBJECT_NAME":"STARLINK-32730","OBJECT_ID":"2024-251R","EPOCH":"2026-03-04T00:33:36.128448","MEAN_MOTION":15.30219651,"ECCENTRICITY":0.0001361,"INCLINATION":53.1625,"RA_OF_ASC_NODE":1.4226,"ARG_OF_PERICENTER":86.9612,"MEAN_ANOMALY":273.1545,"EPHEMERIS_TYPE":0,"CLASSIFICATION_TYPE":"U","NORAD_CAT_ID":62447,"ELEMENT_SET_NO":999,"REV_AT_EPOCH":6708,"BSTAR":0.0011567,"MEAN_MOTION_DOT":0.00034077,"MEAN_MOTION_DDOT":0},{"OBJECT_NAME":"STARLINK-32719","OBJECT_ID":"2024-251S","EPOCH":"2026-03-04T00:29:10.582368","MEAN_MOTION":15.3021188,"ECCENTRICITY":8.49e-5,"INCLINATION":53.164,"RA_OF_ASC_NODE":1.9682,"ARG_OF_PERICENTER":14.2191,"MEAN_ANOMALY":345.8834,"EPHEMERIS_TYPE":0,"CLASSIFICATION_TYPE":"U","NORAD_CAT_ID":62448,"ELEMENT_SET_NO":999,"REV_AT_EPOCH":6690,"BSTAR":0.0012299,"MEAN_MOTION_DOT":0.00036258,"MEAN_MOTION_DDOT":0},{"OBJECT_NAME":"STARLINK-32723","OBJECT_ID":"2024-251T","EPOCH":"2026-03-04T02:21:19.980288","MEAN_MOTION":15.30236453,"ECCENTRICITY":0.0001143,"INCLINATION":53.1624,"RA_OF_ASC_NODE":1.1808,"ARG_OF_PERICENTER":87.1882,"MEAN_ANOMALY":272.9249,"EPHEMERIS_TYPE":0,"CLASSIFICATION_TYPE":"U","NORAD_CAT_ID":62449,"ELEMENT_SET_NO":999,"REV_AT_EPOCH":6693,"BSTAR":0.0015711,"MEAN_MOTION_DOT":0.00046517,"MEAN_MOTION_DDOT":0},{"OBJECT_NAME":"STARLINK-32722","OBJECT_ID":"2024-251U","EPOCH":"2026-03-04T00:39:40.855680","MEAN_MOTION":15.30219947,"ECCENTRICITY":0.0001088,"INCLINATION":53.1622,"RA_OF_ASC_NODE":1.4469,"ARG_OF_PERICENTER":71.8292,"MEAN_ANOMALY":288.2827,"EPHEMERIS_TYPE":0,"CLASSIFICATION_TYPE":"U","NORAD_CAT_ID":62450,"ELEMENT_SET_NO":999,"REV_AT_EPOCH":6671,"BSTAR":0.0009906,"MEAN_MOTION_DOT":0.00029113,"MEAN_MOTION_DDOT":0},{"OBJECT_NAME":"STARLINK-32720","OBJECT_ID":"2024-251V","EPOCH":"2026-03-04T01:23:44.907360","MEAN_MOTION":15.30220266,"ECCENTRICITY":0.0001664,"INCLINATION":53.1604,"RA_OF_ASC_NODE":1.642,"ARG_OF_PERICENTER":134.3135,"MEAN_ANOMALY":225.8002,"EPHEMERIS_TYPE":0,"CLASSIFICATION_TYPE":"U","NORAD_CAT_ID":62451,"ELEMENT_SET_NO":999,"REV_AT_EPOCH":6671,"BSTAR":0.0016448,"MEAN_MOTION_DOT":0.00048707,"MEAN_MOTION_DDOT":0},{"OBJECT_NAME":"STARLINK-32656","OBJECT_ID":"2024-251W","EPOCH":"2026-03-04T03:19:04.356768","MEAN_MOTION":15.30231458,"ECCENTRICITY":0.0001008,"INCLINATION":53.1617,"RA_OF_ASC_NODE":1.4297,"ARG_OF_PERICENTER":95.3184,"MEAN_ANOMALY":264.7932,"EPHEMERIS_TYPE":0,"CLASSIFICATION_TYPE":"U","NORAD_CAT_ID":62452,"ELEMENT_SET_NO":999,"REV_AT_EPOCH":6693,"BSTAR":0.00097385,"MEAN_MOTION_DOT":0.00028622,"MEAN_MOTION_DDOT":0},{"OBJECT_NAME":"STARLINK-32690","OBJECT_ID":"2024-251X","EPOCH":"2026-03-04T00:35:07.234656","MEAN_MOTION":15.30219481,"ECCENTRICITY":8.25e-5,"INCLINATION":53.1627,"RA_OF_ASC_NODE":1.4307,"ARG_OF_PERICENTER":95.546,"MEAN_ANOMALY":264.5635,"EPHEMERIS_TYPE":0,"CLASSIFICATION_TYPE":"U","NORAD_CAT_ID":62453,"ELEMENT_SET_NO":999,"REV_AT_EPOCH":6670,"BSTAR":0.0015979,"MEAN_MOTION_DOT":0.00047296,"MEAN_MOTION_DDOT":0},{"OBJECT_NAME":"STARLINK-11518 [DTC]","OBJECT_ID":"2024-254A","EPOCH":"2026-03-03T13:33:54.184608","MEAN_MOTION":15.70989843,"ECCENTRICITY":0.0002083,"INCLINATION":42.9984,"RA_OF_ASC_NODE":260.2892,"ARG_OF_PERICENTER":249.6998,"MEAN_ANOMALY":110.3646,"EPHEMERIS_TYPE":0,"CLASSIFICATION_TYPE":"U","NORAD_CAT_ID":62462,"ELEMENT_SET_NO":999,"REV_AT_EPOCH":6844,"BSTAR":0.0019609,"MEAN_MOTION_DOT":0.00260862,"MEAN_MOTION_DDOT":0},{"OBJECT_NAME":"STARLINK-11455 [DTC]","OBJECT_ID":"2024-254B","EPOCH":"2026-03-03T13:41:32.688672","MEAN_MOTION":15.70991936,"ECCENTRICITY":0.0002085,"INCLINATION":42.9985,"RA_OF_ASC_NODE":260.3308,"ARG_OF_PERICENTER":232.8666,"MEAN_ANOMALY":127.2012,"EPHEMERIS_TYPE":0,"CLASSIFICATION_TYPE":"U","NORAD_CAT_ID":62463,"ELEMENT_SET_NO":999,"REV_AT_EPOCH":6843,"BSTAR":0.0019136,"MEAN_MOTION_DOT":0.00254383,"MEAN_MOTION_DDOT":0},{"OBJECT_NAME":"STARLINK-11178 [DTC]","OBJECT_ID":"2024-254D","EPOCH":"2026-03-03T22:27:58.218336","MEAN_MOTION":15.7097743,"ECCENTRICITY":0.0001645,"INCLINATION":42.9987,"RA_OF_ASC_NODE":257.9043,"ARG_OF_PERICENTER":275.3574,"MEAN_ANOMALY":84.7106,"EPHEMERIS_TYPE":0,"CLASSIFICATION_TYPE":"U","NORAD_CAT_ID":62465,"ELEMENT_SET_NO":999,"REV_AT_EPOCH":6833,"BSTAR":0.002955,"MEAN_MOTION_DOT":0.00399833,"MEAN_MOTION_DDOT":0}]
